[
  {
    "OBJECT_NAME": "STARLINK-30279",
    "OBJECT_ID": "23144X",
    "EPOCH": "2025-11-11T02:14:01.064832",
    "MEAN_MOTION": 15.0253952,
    "ECCENTRICITY": 0.0001084,
    "INCLINATION": 43.0037,
    "RA_OF_ASC_NODE": 211.638,
    "ARG_OF_PERICENTER": 260.3668,
    "MEAN_ANOMALY": 99.7052,
    "EPHEMERIS_TYPE": 0,
    "CLASSIFICATION_TYPE": "U",
    "NORAD_CAT_ID": 57885,
    "ELEMENT_SET_NO": 999,
    "REV_AT_EPOCH": 11971,
    "BSTAR": 0.00010439,
    "MEAN_MOTION_DOT": 1.207e-05,
    "MEAN_MOTION_DDOT": 0.0,
    "TLE_LINE1": "1 57885U 23144X   25315.09306788  .00001207  00000+0  10439-3 0  9993",
    "TLE_LINE2": "2 57885  43.0037 211.6380 0001084 260.3668  99.7052 15.02539520119710",
    "COMMENT": "Grouped by shell and plane from TLE"
  },
  {
    "OBJECT_NAME": "STARLINK-30861",
    "OBJECT_ID": "23171A",
    "EPOCH": "2025-11-11T02:02:26.771712",
    "MEAN_MOTION": 15.02547254,
    "ECCENTRICITY": 0.0001369,
    "INCLINATION": 43.0017,
    "RA_OF_ASC_NODE": 210.5219,
    "ARG_OF_PERICENTER": 266.3858,
    "MEAN_ANOMALY": 93.6828,
    "EPHEMERIS_TYPE": 0,
    "CLASSIFICATION_TYPE": "U",
    "NORAD_CAT_ID": 58230,
    "ELEMENT_SET_NO": 999,
    "REV_AT_EPOCH": 11188,
    "BSTAR": 0.00052046,
    "MEAN_MOTION_DOT": 6.836e-05,
    "MEAN_MOTION_DDOT": 0.0,
    "TLE_LINE1": "1 58230U 23171A   25315.08503208  .00006836  00000+0  52046-3 0  9996",
    "TLE_LINE2": "2 58230  43.0017 210.5219 0001369 266.3858  93.6828 15.02547254111882",
    "COMMENT": "Grouped by shell and plane from TLE"
  },
  {
    "OBJECT_NAME": "STARLINK-30867",
    "OBJECT_ID": "23171B",
    "EPOCH": "2025-11-11T03:42:58.351392",
    "MEAN_MOTION": 15.025188,
    "ECCENTRICITY": 0.0001294,
    "INCLINATION": 43.0051,
    "RA_OF_ASC_NODE": 210.1817,
    "ARG_OF_PERICENTER": 269.9845,
    "MEAN_ANOMALY": 90.0849,
    "EPHEMERIS_TYPE": 0,
    "CLASSIFICATION_TYPE": "U",
    "NORAD_CAT_ID": 58231,
    "ELEMENT_SET_NO": 999,
    "REV_AT_EPOCH": 11189,
    "BSTAR": 0.00026616000000000004,
    "MEAN_MOTION_DOT": 3.392e-05,
    "MEAN_MOTION_DDOT": 0.0,
    "TLE_LINE1": "1 58231U 23171B   25315.15484203  .00003392  00000+0  26616-3 0  9996",
    "TLE_LINE2": "2 58231  43.0051 210.1817 0001294 269.9845  90.0849 15.02518800111893",
    "COMMENT": "Grouped by shell and plane from TLE"
  },
  {
    "OBJECT_NAME": "STARLINK-30777",
    "OBJECT_ID": "23171D",
    "EPOCH": "2025-11-11T02:21:36.836928",
    "MEAN_MOTION": 15.02543258,
    "ECCENTRICITY": 8.7e-05,
    "INCLINATION": 43.0018,
    "RA_OF_ASC_NODE": 210.616,
    "ARG_OF_PERICENTER": 274.8117,
    "MEAN_ANOMALY": 85.2626,
    "EPHEMERIS_TYPE": 0,
    "CLASSIFICATION_TYPE": "U",
    "NORAD_CAT_ID": 58233,
    "ELEMENT_SET_NO": 999,
    "REV_AT_EPOCH": 11188,
    "BSTAR": 0.0001428,
    "MEAN_MOTION_DOT": 1.726e-05,
    "MEAN_MOTION_DDOT": 0.0,
    "TLE_LINE1": "1 58233U 23171D   25315.09834302  .00001726  00000+0  14280-3 0  9993",
    "TLE_LINE2": "2 58233  43.0018 210.6160 0000870 274.8117  85.2626 15.02543258111883",
    "COMMENT": "Grouped by shell and plane from TLE"
  },
  {
    "OBJECT_NAME": "STARLINK-30860",
    "OBJECT_ID": "23171E",
    "EPOCH": "2025-11-11T02:16:49.444608",
    "MEAN_MOTION": 15.02539259,
    "ECCENTRICITY": 8.64e-05,
    "INCLINATION": 43.002,
    "RA_OF_ASC_NODE": 210.592,
    "ARG_OF_PERICENTER": 273.4063,
    "MEAN_ANOMALY": 86.6681,
    "EPHEMERIS_TYPE": 0,
    "CLASSIFICATION_TYPE": "U",
    "NORAD_CAT_ID": 58234,
    "ELEMENT_SET_NO": 999,
    "REV_AT_EPOCH": 11188,
    "BSTAR": 9.853e-05,
    "MEAN_MOTION_DOT": 1.128e-05,
    "MEAN_MOTION_DDOT": 0.0,
    "TLE_LINE1": "1 58234U 23171E   25315.09501672  .00001128  00000+0  98530-4 0  9992",
    "TLE_LINE2": "2 58234  43.0020 210.5920 0000864 273.4063  86.6681 15.02539259111880",
    "COMMENT": "Grouped by shell and plane from TLE"
  },
  {
    "OBJECT_NAME": "STARLINK-30853",
    "OBJECT_ID": "23171G",
    "EPOCH": "2025-11-11T02:26:24.005472",
    "MEAN_MOTION": 15.02563617,
    "ECCENTRICITY": 0.0001823,
    "INCLINATION": 43.0048,
    "RA_OF_ASC_NODE": 210.6357,
    "ARG_OF_PERICENTER": 262.3734,
    "MEAN_ANOMALY": 97.6901,
    "EPHEMERIS_TYPE": 0,
    "CLASSIFICATION_TYPE": "U",
    "NORAD_CAT_ID": 58236,
    "ELEMENT_SET_NO": 999,
    "REV_AT_EPOCH": 11188,
    "BSTAR": 0.0,
    "MEAN_MOTION_DOT": -5.757e-05,
    "MEAN_MOTION_DDOT": 0.0,
    "TLE_LINE1": "1 58236U 23171G   25315.10166673 -.00005757  00000+0 -41114-3 0  9993",
    "TLE_LINE2": "2 58236  43.0048 210.6357 0001823 262.3734  97.6901 15.02563617111887",
    "COMMENT": "Grouped by shell and plane from TLE"
  },
  {
    "OBJECT_NAME": "STARLINK-30866",
    "OBJECT_ID": "23171H",
    "EPOCH": "2025-11-11T03:18:59.382720",
    "MEAN_MOTION": 15.02538973,
    "ECCENTRICITY": 9.81e-05,
    "INCLINATION": 43.0021,
    "RA_OF_ASC_NODE": 210.0486,
    "ARG_OF_PERICENTER": 271.016,
    "MEAN_ANOMALY": 89.0569,
    "EPHEMERIS_TYPE": 0,
    "CLASSIFICATION_TYPE": "U",
    "NORAD_CAT_ID": 58237,
    "ELEMENT_SET_NO": 999,
    "REV_AT_EPOCH": 11189,
    "BSTAR": 9.9557e-05,
    "MEAN_MOTION_DOT": 1.142e-05,
    "MEAN_MOTION_DDOT": 0.0,
    "TLE_LINE1": "1 58237U 23171H   25315.13818730  .00001142  00000+0  99557-4 0  9992",
    "TLE_LINE2": "2 58237  43.0021 210.0486 0000981 271.0160  89.0569 15.02538973111893",
    "COMMENT": "Grouped by shell and plane from TLE"
  },
  {
    "OBJECT_NAME": "STARLINK-30817",
    "OBJECT_ID": "23171J",
    "EPOCH": "2025-11-11T02:31:14.559168",
    "MEAN_MOTION": 15.02518899,
    "ECCENTRICITY": 8.63e-05,
    "INCLINATION": 43.0009,
    "RA_OF_ASC_NODE": 210.656,
    "ARG_OF_PERICENTER": 303.8029,
    "MEAN_ANOMALY": 56.2731,
    "EPHEMERIS_TYPE": 0,
    "CLASSIFICATION_TYPE": "U",
    "NORAD_CAT_ID": 58238,
    "ELEMENT_SET_NO": 999,
    "REV_AT_EPOCH": 11188,
    "BSTAR": 0.0,
    "MEAN_MOTION_DOT": -6.71e-06,
    "MEAN_MOTION_DDOT": 0.0,
    "TLE_LINE1": "1 58238U 23171J   25315.10502962 -.00000671  00000+0 -34604-4 0  9997",
    "TLE_LINE2": "2 58238  43.0009 210.6560 0000863 303.8029  56.2731 15.02518899111887",
    "COMMENT": "Grouped by shell and plane from TLE"
  },
  {
    "OBJECT_NAME": "STARLINK-30847",
    "OBJECT_ID": "23171K",
    "EPOCH": "2025-11-11T02:36:01.659456",
    "MEAN_MOTION": 15.02519548,
    "ECCENTRICITY": 6.43e-05,
    "INCLINATION": 43.0019,
    "RA_OF_ASC_NODE": 210.688,
    "ARG_OF_PERICENTER": 288.7293,
    "MEAN_ANOMALY": 71.348,
    "EPHEMERIS_TYPE": 0,
    "CLASSIFICATION_TYPE": "U",
    "NORAD_CAT_ID": 58239,
    "ELEMENT_SET_NO": 999,
    "REV_AT_EPOCH": 11188,
    "BSTAR": 0.0,
    "MEAN_MOTION_DOT": -1.127e-05,
    "MEAN_MOTION_DDOT": 0.0,
    "TLE_LINE1": "1 58239U 23171K   25315.10835254 -.00001127  00000+0 -68441-4 0  9994",
    "TLE_LINE2": "2 58239  43.0019 210.6880 0000643 288.7293  71.3480 15.02519548111885",
    "COMMENT": "Grouped by shell and plane from TLE"
  },
  {
    "OBJECT_NAME": "STARLINK-30848",
    "OBJECT_ID": "23171L",
    "EPOCH": "2025-11-11T01:21:23.877504",
    "MEAN_MOTION": 15.02539375,
    "ECCENTRICITY": 9e-05,
    "INCLINATION": 43.0023,
    "RA_OF_ASC_NODE": 211.9891,
    "ARG_OF_PERICENTER": 275.98,
    "MEAN_ANOMALY": 84.094,
    "EPHEMERIS_TYPE": 0,
    "CLASSIFICATION_TYPE": "U",
    "NORAD_CAT_ID": 58240,
    "ELEMENT_SET_NO": 999,
    "REV_AT_EPOCH": 11186,
    "BSTAR": 0.00014274,
    "MEAN_MOTION_DOT": 1.725e-05,
    "MEAN_MOTION_DDOT": 0.0,
    "TLE_LINE1": "1 58240U 23171L   25315.05652636  .00001725  00000+0  14274-3 0  9997",
    "TLE_LINE2": "2 58240  43.0023 211.9891 0000900 275.9800  84.0940 15.02539375111866",
    "COMMENT": "Grouped by shell and plane from TLE"
  },
  {
    "OBJECT_NAME": "STARLINK-30843",
    "OBJECT_ID": "23171M",
    "EPOCH": "2025-11-11T01:05:05.130528",
    "MEAN_MOTION": 15.02548186,
    "ECCENTRICITY": 0.000149,
    "INCLINATION": 43.0042,
    "RA_OF_ASC_NODE": 211.0574,
    "ARG_OF_PERICENTER": 276.4114,
    "MEAN_ANOMALY": 83.6558,
    "EPHEMERIS_TYPE": 0,
    "CLASSIFICATION_TYPE": "U",
    "NORAD_CAT_ID": 58241,
    "ELEMENT_SET_NO": 999,
    "REV_AT_EPOCH": 11189,
    "BSTAR": 0.0,
    "MEAN_MOTION_DOT": -1.99e-05,
    "MEAN_MOTION_DDOT": 0.0,
    "TLE_LINE1": "1 58241U 23171M   25315.04519827 -.00001990  00000+0 -13224-3 0  9991",
    "TLE_LINE2": "2 58241  43.0042 211.0574 0001490 276.4114  83.6558 15.02548186111899",
    "COMMENT": "Grouped by shell and plane from TLE"
  },
  {
    "OBJECT_NAME": "STARLINK-30877",
    "OBJECT_ID": "23171N",
    "EPOCH": "2025-11-11T01:48:03.240864",
    "MEAN_MOTION": 15.02535069,
    "ECCENTRICITY": 0.000115,
    "INCLINATION": 43.0035,
    "RA_OF_ASC_NODE": 210.4307,
    "ARG_OF_PERICENTER": 270.8801,
    "MEAN_ANOMALY": 89.1909,
    "EPHEMERIS_TYPE": 0,
    "CLASSIFICATION_TYPE": "U",
    "NORAD_CAT_ID": 58242,
    "ELEMENT_SET_NO": 999,
    "REV_AT_EPOCH": 11188,
    "BSTAR": 5.5253e-05,
    "MEAN_MOTION_DOT": 5.43e-06,
    "MEAN_MOTION_DDOT": 0.0,
    "TLE_LINE1": "1 58242U 23171N   25315.07503751  .00000543  00000+0  55253-4 0  9994",
    "TLE_LINE2": "2 58242  43.0035 210.4307 0001150 270.8801  89.1909 15.02535069111889",
    "COMMENT": "Grouped by shell and plane from TLE"
  },
  {
    "OBJECT_NAME": "STARLINK-30854",
    "OBJECT_ID": "23171Q",
    "EPOCH": "2025-11-11T01:02:13.431264",
    "MEAN_MOTION": 15.02536158,
    "ECCENTRICITY": 0.000101,
    "INCLINATION": 43.0033,
    "RA_OF_ASC_NODE": 211.9063,
    "ARG_OF_PERICENTER": 266.0473,
    "MEAN_ANOMALY": 94.0254,
    "EPHEMERIS_TYPE": 0,
    "CLASSIFICATION_TYPE": "U",
    "NORAD_CAT_ID": 58244,
    "ELEMENT_SET_NO": 999,
    "REV_AT_EPOCH": 11186,
    "BSTAR": 8.9134e-05,
    "MEAN_MOTION_DOT": 1.001e-05,
    "MEAN_MOTION_DDOT": 0.0,
    "TLE_LINE1": "1 58244U 23171Q   25315.04321101  .00001001  00000+0  89134-4 0  9995",
    "TLE_LINE2": "2 58244  43.0033 211.9063 0001010 266.0473  94.0254 15.02536158111867",
    "COMMENT": "Grouped by shell and plane from TLE"
  }
]